[{"OBJECT_NAME":"QIANFAN-102","OBJECT_ID":"2025-233M","EPOCH":"2026-03-09T22:25:19.317504","MEAN_MOTION":13.5099281,"ECCENTRICITY":0.0002139,"INCLINATION":88.9941,"RA_OF_ASC_NODE":53.1299,"ARG_OF_PERICENTER":87.3714,"MEAN_ANOMALY":272.7682,"EPHEMERIS_TYPE":0,"CLASSIFICATION_TYPE":"U","NORAD_CAT_ID":66044,"ELEMENT_SET_NO":999,"REV_AT_EPOCH":1983,"BSTAR":9.6746268e-5,"MEAN_MOTION_DOT":7.4e-7,"MEAN_MOTION_DDOT":0},{"OBJECT_NAME":"COSMOS 1275 DEB","OBJECT_ID":"1981-053JD","EPOCH":"2026-03-02T12:10:36.646176","MEAN_MOTION":13.72981652,"ECCENTRICITY":0.01138107,"INCLINATION":82.9573,"RA_OF_ASC_NODE":251.1665,"ARG_OF_PERICENTER":325.8999,"MEAN_ANOMALY":62.2172,"EPHEMERIS_TYPE":0,"CLASSIFICATION_TYPE":"U","NORAD_CAT_ID":14408,"ELEMENT_SET_NO":999,"REV_AT_EPOCH":68882,"BSTAR":0.0011023898,"MEAN_MOTION_DOT":1.079e-5,"MEAN_MOTION_DDOT":0}]
